CCSDS_OEM_VERS = 1.0
CREATION_DATE  = 2017-05-11T10:59:32
ORIGINATOR     = GMAT USER

META_START
OBJECT_NAME          = MOPSSat_alt_35785_km_RAAN_0_051
OBJECT_ID            = SatId
CENTER_NAME          = Earth
REF_FRAME            = EME2000
TIME_SYSTEM          = UTC
START_TIME           = 2017-01-01T00:00:00.000
USEABLE_START_TIME   = 2017-01-01T00:00:00.000
USEABLE_STOP_TIME    = 2017-01-02T00:00:00.000
STOP_TIME            = 2017-01-02T00:00:00.000
INTERPOLATION        = Lagrange
INTERPOLATION_DEGREE = 7 
META_STOP


                                                                                   

2017-01-01T22:09:10.000   3.763984740204803e+04  -1.892813961587763e+04  -1.656290920969724e+03   1.385584215041735e+00   2.734414984640547e+00   2.391501303599577e-01
2017-01-01T22:09:20.000   3.765369323502186e+04  -1.890079043592056e+04  -1.653898979638513e+03   1.383582256630393e+00   2.735420763645239e+00   2.392381146188108e-01
2017-01-01T22:09:30.000   3.766751904485432e+04  -1.887343120520356e+04  -1.651506159079548e+03   1.381579562378548e+00   2.736425087996513e+00   2.393259716577734e-01
2017-01-01T22:09:40.000   3.768132482415513e+04  -1.884606193834764e+04  -1.649112460571540e+03   1.379576133356553e+00   2.737427957157525e+00   2.394137014299002e-01
2017-01-01T22:09:50.000   3.769511056552597e+04  -1.881868265001913e+04  -1.646717885397166e+03   1.377571970638076e+00   2.738429370590849e+00   2.395013038881945e-01
2017-01-01T22:10:00.000   3.770887626157291e+04  -1.879129335490177e+04  -1.644322434840625e+03   1.375567075298059e+00   2.739429327759380e+00   2.395887789856881e-01
2017-01-01T22:10:10.000   3.772262190491164e+04  -1.876389406768688e+04  -1.641926110186777e+03   1.373561448412000e+00   2.740427828126708e+00   2.396761266754734e-01
2017-01-01T22:10:20.000   3.773634748821724e+04  -1.873648480297580e+04  -1.639528912712614e+03   1.371555091048809e+00   2.741424871160741e+00   2.397633469110204e-01
2017-01-01T22:10:30.000   3.775005300419062e+04  -1.870906557534463e+04  -1.637130843692923e+03   1.369548004275550e+00   2.742420456331265e+00   2.398504396459633e-01
2017-01-01T22:10:40.000   3.776373844555863e+04  -1.868163639934446e+04  -1.634731904400300e+03   1.367540189157459e+00   2.743414583109946e+00   2.399374048341009e-01
2017-01-01T22:10:50.000   3.777740380510602e+04  -1.865419728943554e+04  -1.632332096099395e+03   1.365531646753113e+00   2.744407250972661e+00   2.400242424296005e-01
2017-01-01T22:11:00.000   3.779104907562699e+04  -1.862674826008561e+04  -1.629931420055515e+03   1.363522378121648e+00   2.745398459395968e+00   2.401109523866887e-01
2017-01-01T22:11:10.000   3.780467424992050e+04  -1.859928932577988e+04  -1.627529877535499e+03   1.361512384323474e+00   2.746388207856778e+00   2.401975346596230e-01
2017-01-01T22:11:20.000   3.781827932077538e+04  -1.857182050104781e+04  -1.625127469810046e+03   1.359501666422240e+00   2.747376495831263e+00   2.402839892025962e-01
2017-01-01T22:11:30.000   3.783186428096101e+04  -1.854434180048570e+04  -1.622724198155712e+03   1.357490225486490e+00   2.748363322794182e+00   2.403703159696778e-01
2017-01-01T22:11:40.000   3.784542912326669e+04  -1.851685323867568e+04  -1.620320063847804e+03   1.355478062583728e+00   2.749348688221742e+00   2.404565149150635e-01
2017-01-01T22:11:50.000   3.785897384032477e+04  -1.848935483054878e+04  -1.617915068192151e+03   1.353465178807000e+00   2.750332591578753e+00   2.405425859919520e-01
2017-01-01T22:12:00.000   3.787249842482547e+04  -1.846184659094509e+04  -1.615509212486624e+03   1.351451575242693e+00   2.751315032334223e+00   2.406285291539094e-01
2017-01-01T22:12:10.000   3.788600286943672e+04  -1.843432853477724e+04  -1.613102498035439e+03   1.349437252982505e+00   2.752296009955542e+00   2.407143443543605e-01
2017-01-01T22:12:20.000   3.789948716711502e+04  -1.840680067639747e+04  -1.610694926093801e+03   1.347422213077114e+00   2.753275523931069e+00   2.408000315485638e-01
2017-01-01T22:12:30.000   3.791295131079524e+04  -1.837926303022881e+04  -1.608286497923107e+03   1.345406456582381e+00   2.754253573747585e+00   2.408855906916403e-01
2017-01-01T22:12:40.000   3.792639529346130e+04  -1.835171561062230e+04  -1.605877214778456e+03   1.343389984548895e+00   2.755230158895436e+00   2.409710217390225e-01
2017-01-01T22:12:50.000   3.793981910796922e+04  -1.832415843221233e+04  -1.603467077939731e+03   1.341372798047987e+00   2.756205278855680e+00   2.410563246453307e-01
2017-01-01T22:13:00.000   3.795322274717926e+04  -1.829659150965318e+04  -1.601056088688551e+03   1.339354898152443e+00   2.757178933109684e+00   2.411414993652115e-01
2017-01-01T22:13:10.000   3.796660620395488e+04  -1.826901485761844e+04  -1.598644248308227e+03   1.337336285936467e+00   2.758151121139043e+00   2.412265458533324e-01
2017-01-01T22:13:20.000   3.797996947103666e+04  -1.824142849106751e+04  -1.596231558107064e+03   1.335316962495177e+00   2.759121842416429e+00   2.413114640635795e-01
2017-01-01T22:13:30.000   3.799331254121308e+04  -1.821383242488713e+04  -1.593818019387016e+03   1.333296928918380e+00   2.760091096417995e+00   2.413962539501439e-01
2017-01-01T22:13:40.000   3.800663540725296e+04  -1.818622667403250e+04  -1.591403633456019e+03   1.331276186300889e+00   2.761058882618467e+00   2.414809154670916e-01
2017-01-01T22:13:50.000   3.801993806220626e+04  -1.815861125290423e+04  -1.588988401573510e+03   1.329254735696924e+00   2.762025200512990e+00   2.415654485702747e-01
2017-01-01T22:14:00.000   3.803322049910302e+04  -1.813098617597128e+04  -1.586572325004901e+03   1.327232578165705e+00   2.762990049595262e+00   2.416498532154191e-01
2017-01-01T22:14:10.000   3.804648271102182e+04  -1.810335145763021e+04  -1.584155405009273e+03   1.325209714761156e+00   2.763953429362515e+00   2.417341293585594e-01
2017-01-01T22:14:20.000   3.805972469091527e+04  -1.807570711256180e+04  -1.581737642870564e+03   1.323186146558006e+00   2.764915339302823e+00   2.418182769549292e-01
2017-01-01T22:14:30.000   3.807294643174038e+04  -1.804805315546670e+04  -1.579319039874448e+03   1.321161874632434e+00   2.765875778904582e+00   2.419022959597903e-01
2017-01-01T22:14:40.000   3.808614792645740e+04  -1.802038960106485e+04  -1.576899597308291e+03   1.319136900062036e+00   2.766834747656424e+00   2.419861863284253e-01
2017-01-01T22:14:50.000   3.809932916790562e+04  -1.799271646436276e+04  -1.574479316484517e+03   1.317111223945383e+00   2.767792245038196e+00   2.420699480153477e-01
2017-01-01T22:15:00.000   3.811249014897176e+04  -1.796503376029404e+04  -1.572058198709176e+03   1.315084847375709e+00   2.768748270533189e+00   2.421535809753732e-01
2017-01-01T22:15:10.000   3.812563086252337e+04  -1.793734150386079e+04  -1.569636245294309e+03   1.313057771451261e+00   2.769702823623305e+00   2.422370851631946e-01
2017-01-01T22:15:20.000   3.813875130170540e+04  -1.790963970950879e+04  -1.567213457503301e+03   1.311029997229567e+00   2.770655903810589e+00   2.423204605352682e-01
2017-01-01T22:15:30.000   3.815185145964334e+04  -1.788192839175222e+04  -1.564789836605518e+03   1.309001525773159e+00   2.771607510595685e+00   2.424037070479268e-01
2017-01-01T22:15:40.000   3.816493132951082e+04  -1.785420756503258e+04  -1.562365383863973e+03   1.306972358139251e+00   2.772557643482726e+00   2.424868246578086e-01
2017-01-01T22:15:50.000   3.817799090435734e+04  -1.782647724407645e+04  -1.559940100566605e+03   1.304942495405921e+00   2.773506301966826e+00   2.425698133207631e-01
2017-01-01T22:16:00.000   3.819103017723685e+04  -1.779873744363016e+04  -1.557513988003087e+03   1.302911938652696e+00   2.774453485543432e+00   2.426526729926685e-01
2017-01-01T22:16:10.000   3.820404914120679e+04  -1.777098817845938e+04  -1.555087047464781e+03   1.300880688960518e+00   2.775399193708237e+00   2.427354036294247e-01
2017-01-01T22:16:20.000   3.821704778920544e+04  -1.774322946361712e+04  -1.552659280268178e+03   1.298848747431362e+00   2.776343425948283e+00   2.428180051861747e-01
2017-01-01T22:16:30.000   3.823002611421815e+04  -1.771546131408313e+04  -1.550230687723365e+03   1.296816115161842e+00   2.777286181754025e+00   2.429004776183604e-01
2017-01-01T22:16:40.000   3.824298410921008e+04  -1.768768374490855e+04  -1.547801271146670e+03   1.294782793253795e+00   2.778227460614466e+00   2.429828208812959e-01
2017-01-01T22:16:50.000   3.825592176742395e+04  -1.765989677057851e+04  -1.545371031804917e+03   1.292748782767628e+00   2.779167262038755e+00   2.430650349320583e-01
2017-01-01T22:17:00.000   3.826883908208142e+04  -1.763210040565104e+04  -1.542939970971309e+03   1.290714084769083e+00   2.780105585534518e+00   2.431471197275914e-01
2017-01-01T22:17:10.000   3.828173604646038e+04  -1.760429466459214e+04  -1.540508089911001e+03   1.288678700317169e+00   2.781042430613472e+00   2.432290752251964e-01
2017-01-01T22:17:20.000   3.829461265368684e+04  -1.757647956221885e+04  -1.538075389919841e+03   1.286642630496585e+00   2.781977796776292e+00   2.433109013812092e-01
2017-01-01T22:17:30.000   3.830746889690702e+04  -1.754865511333373e+04  -1.535641872292422e+03   1.284605876390976e+00   2.782911683525126e+00   2.433925981520937e-01
2017-01-01T22:17:40.000   3.832030476924880e+04  -1.752082133280649e+04  -1.533207538329202e+03   1.282568439088899e+00   2.783844090360792e+00   2.434741654941984e-01
2017-01-01T22:17:50.000   3.833312026383362e+04  -1.749297823555237e+04  -1.530772389334625e+03   1.280530319682244e+00   2.784775016783641e+00   2.435556033638298e-01
2017-01-01T22:18:00.000   3.834591537378799e+04  -1.746512583650386e+04  -1.528336426614643e+03   1.278491519264167e+00   2.785704462294386e+00   2.436369117173273e-01
2017-01-01T22:18:10.000   3.835869009224826e+04  -1.743726415060075e+04  -1.525899651475840e+03   1.276452038928353e+00   2.786632426394462e+00   2.437180905110924e-01
